[{"OBJECT_NAME":"STARLINK-34873","OBJECT_ID":"2025-189Z","EPOCH":"2026-03-09T15:21:37.481760","MEAN_MOTION":15.30192814,"ECCENTRICITY":0.0001115,"INCLINATION":53.1607,"RA_OF_ASC_NODE":206.6533,"ARG_OF_PERICENTER":101.6411,"MEAN_ANOMALY":258.4715,"EPHEMERIS_TYPE":0,"CLASSIFICATION_TYPE":"U","NORAD_CAT_ID":65346,"ELEMENT_SET_NO":999,"REV_AT_EPOCH":3111,"BSTAR":0.00045328,"MEAN_MOTION_DOT":0.00013087,"MEAN_MOTION_DDOT":0},{"OBJECT_NAME":"KSLV-II R\/B","OBJECT_ID":"2023-072H","EPOCH":"2026-03-09T20:13:26.441760","MEAN_MOTION":15.33109439,"ECCENTRICITY":0.00241884,"INCLINATION":97.4991,"RA_OF_ASC_NODE":274.152,"ARG_OF_PERICENTER":318.2938,"MEAN_ANOMALY":41.646,"EPHEMERIS_TYPE":0,"CLASSIFICATION_TYPE":"U","NORAD_CAT_ID":56750,"ELEMENT_SET_NO":999,"REV_AT_EPOCH":15516,"BSTAR":0.00028309532,"MEAN_MOTION_DOT":9.057e-5,"MEAN_MOTION_DDOT":0}]
